NORAD_CAT_ID,OBJECT_NAME,OBJECT_TYPE,EPOCH,MEAN_MOTION,ECCENTRICITY,INCLINATION,RA_OF_ASC_NODE,ARG_OF_PERICENTER,MEAN_ANOMALY,BSTAR,MEAN_MOTION_DOT,MEAN_MOTION_DDOT,TLE_LINE0,TLE_LINE1,TLE_LINE2,SEMIMAJOR_AXIS,PERIOD,APOGEE,PERIGEE,DECAYED
53841.0,STARLINK-4750,PAYLOAD,2024-04-28 05:32:31,15.08833637,0.0001471,53.2174,108.9444,89.9556,270.1605,-8.3558e-06,-4.21e-06,0.0,0 STARLINK-4750,1 53841U 22114Z   24119.23091519 -.00000421  00000-0 -83558-5 0  9991,2 53841  53.2174 108.9444 0001471  89.9556 270.1605 15.08833637 90240,6917.9,95.438,540.782,538.747,0.0
53841.0,STARLINK-4750,PAYLOAD,2024-04-28 23:01:44,15.08846853,0.0001571,53.2185,105.6734,90.4295,269.6877,2.8579e-05,1.67e-06,0.0,0 STARLINK-4750,1 53841U 22114Z   24119.95954758  .00000167  00000-0  28579-4 0  9999,2 53841  53.2185 105.6734 0001571  90.4295 269.6877 15.08846853 90356,6917.859,95.437,540.811,538.638,0.0
53841.0,STARLINK-4750,PAYLOAD,2024-04-29 05:23:16,15.08851194,0.0001338,53.2165,104.4853,87.3908,272.7238,8.0026e-05,9.86e-06,0.0,0 STARLINK-4750,1 53841U 22114Z   24120.22450109  .00000986  00000-0  80026-4 0  9996,2 53841  53.2165 104.4853 0001338  87.3908 272.7238 15.08851194 89853,6917.846,95.437,540.637,538.786,0.0
53841.0,STARLINK-4750,PAYLOAD,2024-04-29 08:34:02,15.0885359,0.0001393,53.2166,103.8899,88.2906,271.8246,0.00010159,1.33e-05,0.0,0 STARLINK-4750,1 53841U 22114Z   24120.35697826  .00001330  00000-0  10159-3 0  9992,2 53841  53.2166 103.8899 0001393  88.2906 271.8246 15.08853590 90411,6917.839,95.437,540.668,538.74,0.0
53841.0,STARLINK-4750,PAYLOAD,2024-04-29 16:30:59,15.0883948,0.0001564,53.2158,102.4001,101.9095,258.2073,-3.2192e-06,-3.39e-06,0.0,0 STARLINK-4750,1 53841U 22114Z   24120.68818912 -.00000339  00000-0 -32192-5 0  9992,2 53841  53.2158 102.4001 0001564 101.9095 258.2073 15.08839480 89927,6917.882,95.438,540.829,538.665,0.0
53841.0,STARLINK-4750,PAYLOAD,2024-04-30 05:14:04,15.08833133,0.0001266,53.2165,100.0248,85.9604,274.1533,9.3751e-05,1.204e-05,0.0,0 STARLINK-4750,1 53841U 22114Z   24121.21811332  .00001204  00000-0  93751-4 0  9998,2 53841  53.2165 100.0248 0001266  85.9604 274.1533 15.08833133 90006,6917.901,95.438,540.642,538.891,0.0
53841.0,STARLINK-4750,PAYLOAD,2024-05-01 05:04:51,15.08844674,0.0001316,53.217,95.5639,89.0017,271.1125,1.2027e-05,-9.6e-07,0.0,0 STARLINK-4750,1 53841U 22114Z   24122.21170906 -.00000096  00000-0  12027-4 0  9990,2 53841  53.2170  95.5639 0001316  89.0017 271.1125 15.08844674 90155,6917.866,95.437,540.641,538.821,0.0
53841.0,STARLINK-4750,PAYLOAD,2024-05-01 22:34:06,15.08838754,0.0001246,53.2173,92.293,89.3028,270.8107,0.00010001,1.304e-05,0.0,0 STARLINK-4750,1 53841U 22114Z   24122.94034967  .00001304  00000-0  10001-3 0  9997,2 53841  53.2173  92.2930 0001246  89.3028 270.8107 15.08838754 90803,6917.884,95.438,540.611,538.887,0.0
53841.0,STARLINK-4750,PAYLOAD,2024-05-02 04:55:38,15.08844788,0.0001256,53.2175,91.1041,90.1129,270.0007,0.00014036,1.947e-05,0.0,0 STARLINK-4750,1 53841U 22114Z   24123.20530528  .00001947  00000-0  14036-3 0  9996,2 53841  53.2175  91.1041 0001256  90.1129 270.0007 15.08844788 90848,6917.866,95.437,540.6,538.862,0.0
53841.0,STARLINK-4750,PAYLOAD,2024-05-02 20:49:29,15.08844276,0.0001176,53.2168,88.1318,93.8843,266.2284,8.1486e-05,1.009e-05,0.0,0 STARLINK-4750,1 53841U 22114Z   24123.86770610  .00001009  00000-0  81486-4 0  9999,2 53841  53.2168  88.1318 0001176  93.8843 266.2284 15.08844276 90405,6917.867,95.437,540.546,538.919,0.0
53841.0,STARLINK-4750,PAYLOAD,2024-05-03 04:46:26,15.08839664,0.0001303,53.2175,86.6458,99.6077,260.5063,4.2656e-06,-2.2e-06,0.0,0 STARLINK-4750,1 53841U 22114Z   24124.19891212 -.00000220  00000-0  42656-5 0  9990,2 53841  53.2175  86.6458 0001303  99.6077 260.5063 15.08839664 90458,6917.881,95.438,540.648,538.845,0.0
53841.0,STARLINK-4750,PAYLOAD,2024-05-03 14:18:44,15.0883805,0.0001233,53.217,84.8612,87.0356,273.0777,2.658e-05,1.35e-06,0.0,0 STARLINK-4750,1 53841U 22114Z   24124.59635278  .00000135  00000-0  26580-4 0  9993,2 53841  53.2170  84.8612 0001233  87.0356 273.0777 15.08838050 91054,6917.886,95.438,540.604,538.898,0.0
53841.0,STARLINK-4750,PAYLOAD,2024-05-04 04:37:14,15.08825088,0.0001367,53.2177,82.1869,95.9238,264.191,-0.00010031,-1.883e-05,0.0,0 STARLINK-4750,1 53841U 22114Z   24125.19252922 -.00001883  00000-0 -10031-3 0  9997,2 53841  53.2177  82.1869 0001367  95.9238 264.1910 15.08825088 90608,6917.926,95.438,540.737,538.845,0.0
53841.0,STARLINK-4750,PAYLOAD,2024-05-04 14:09:33,15.08832233,0.0001304,53.2178,80.4,86.7107,273.4034,-2.475e-05,-6.82e-06,0.0,0 STARLINK-4750,1 53841U 22114Z   24125.58996556 -.00000682  00000-0 -24750-4 0  9998,2 53841  53.2178  80.4000 0001304  86.7107 273.4034 15.08832233 90667,6917.904,95.438,540.671,538.867,0.0
53841.0,STARLINK-4750,PAYLOAD,2024-05-05 04:28:00,15.08842089,0.0001369,53.2178,77.7237,83.6637,276.4511,0.00010759,1.425e-05,0.0,0 STARLINK-4750,1 53841U 22114Z   24126.18612004  .00001425  00000-0  10759-3 0  9995,2 53841  53.2178  77.7237 0001369  83.6637 276.4511 15.08842089 90756,6917.874,95.437,540.686,538.792,0.0
53841.0,STARLINK-4750,PAYLOAD,2024-05-05 06:03:23,15.08844787,0.0001385,53.2178,77.4258,85.5411,274.5739,0.00013326,1.834e-05,0.0,0 STARLINK-4750,1 53841U 22114Z   24126.25235825  .00001834  00000-0  13326-3 0  9992,2 53841  53.2178  77.4258 0001385  85.5411 274.5739 15.08844787 91305,6917.866,95.437,540.689,538.773,0.0
53841.0,STARLINK-4750,PAYLOAD,2024-05-06 02:43:24,15.08849262,0.0001286,53.2182,73.5599,82.1704,277.9435,0.00039662,6.031e-05,0.0,0 STARLINK-4750,1 53841U 22114Z   24127.11347238  .00006031  00000-0  39662-3 0  9995,2 53841  53.2182  73.5599 0001286  82.1704 277.9435 15.08849262 90899,6917.852,95.437,540.607,538.827,0.0
53841.0,STARLINK-4750,PAYLOAD,2024-05-06 13:51:05,15.08858914,0.0001347,53.2165,71.479,86.3903,273.7243,0.0003834,5.822e-05,0.0,0 STARLINK-4750,1 53841U 22114Z   24127.57715057  .00005822  00000-0  38340-3 0  9992,2 53841  53.2165  71.4790 0001347  86.3903 273.7243 15.08858914 91509,6917.823,95.436,540.619,538.756,0.0
53841.0,STARLINK-4750,PAYLOAD,2024-05-07 02:34:10,15.08853557,0.0001292,53.2174,69.0994,95.0364,265.0776,0.00015271,2.144e-05,0.0,0 STARLINK-4750,1 53841U 22114Z   24128.10706856  .00002144  00000-0  15271-3 0  9991,2 53841  53.2174  69.0994 0001292  95.0364 265.0776 15.08853557 91047,6917.839,95.437,540.598,538.81,0.0
53841.0,STARLINK-4750,PAYLOAD,2024-05-07 05:44:56,15.08860901,0.0001577,53.2182,68.5029,101.9422,258.1747,0.00018363,2.637e-05,0.0,0 STARLINK-4750,1 53841U 22114Z   24128.23954404  .00002637  00000-0  18363-3 0  9991,2 53841  53.2182  68.5029 0001577 101.9422 258.1747 15.08860901 91601,6917.817,95.436,540.772,538.591,0.0
53841.0,STARLINK-4750,PAYLOAD,2024-05-08 02:24:58,15.08831461,0.0001389,53.2177,64.6385,93.0078,267.1073,-0.00018808,-3.279e-05,0.0,0 STARLINK-4750,1 53841U 22114Z   24129.10067927 -.00003279  00000-0 -18808-3 0  9992,2 53841  53.2177  64.6385 0001389  93.0078 267.1073 15.08831461 91191,6917.906,95.438,540.732,538.811,0.0
53841.0,STARLINK-4750,PAYLOAD,2024-05-09 02:15:45,15.08851198,0.0001237,53.2172,60.1788,88.9955,271.1179,0.00046984,7.2e-05,0.0,0 STARLINK-4750,1 53841U 22114Z   24130.09427567  .00007200  00000-0  46984-3 0  9994,2 53841  53.2172  60.1788 0001237  88.9955 271.1179 15.08851198 91341,6917.846,95.437,540.567,538.855,0.0
53841.0,STARLINK-4750,PAYLOAD,2024-05-09 11:48:04,15.08850236,0.0001058,53.2165,58.3951,89.1094,271.0019,0.00062882,9.737e-05,0.0,0 STARLINK-4750,1 53841U 22114Z   24130.49171596  .00009737  00000-0  62882-3 0  9998,2 53841  53.2165  58.3951 0001058  89.1094 271.0019 15.08850236 91942,6917.849,95.437,540.446,538.982,0.0
53841.0,STARLINK-4750,PAYLOAD,2024-05-09 22:55:46,15.08845934,0.0001876,53.2179,56.3151,87.4386,272.6821,0.00029861,4.468e-05,0.0,0 STARLINK-4750,1 53841U 22114Z   24130.95540083  .00004468  00000-0  29861-3 0  9996,2 53841  53.2179  56.3151 0001876  87.4386 272.6821 15.08845934 92016,6917.862,95.437,541.025,538.429,0.0
53841.0,STARLINK-4750,PAYLOAD,2024-05-10 02:06:32,15.08846087,0.0001301,53.2174,55.7223,95.9534,264.1606,0.00030434,4.56e-05,0.0,0 STARLINK-4750,1 53841U 22114Z   24131.08787987  .00004560  00000-0  30434-3 0  9998,2 53841  53.2174  55.7223 0001301  95.9534 264.1606 15.08846087 91494,6917.862,95.437,540.627,538.827,0.0
53841.0,STARLINK-4750,PAYLOAD,2024-05-10 11:38:51,15.08845051,0.0001262,53.2175,53.9383,97.6554,262.4582,0.00020785,3.022e-05,0.0,0 STARLINK-4750,1 53841U 22114Z   24131.48531919  .00003022  00000-0  20785-3 0  9994,2 53841  53.2175  53.9383 0001262  97.6554 262.4582 15.08845051 92090,6917.865,95.437,540.603,538.857,0.0
53841.0,STARLINK-4750,PAYLOAD,2024-05-10 22:46:33,15.08850155,0.0001164,53.2169,51.8554,95.2454,264.8671,0.0002932,4.383e-05,0.0,0 STARLINK-4750,1 53841U 22114Z   24131.94899720  .00004383  00000-0  29320-3 0  9997,2 53841  53.2169  51.8554 0001164  95.2454 264.8671 15.08850155 92168,6917.849,95.437,540.52,538.909,0.0
53841.0,STARLINK-4750,PAYLOAD,2024-05-11 01:57:19,15.08873661,0.0001687,53.2191,51.2649,114.9497,245.167,0.0011287,0.00017737,0.0,0 STARLINK-4750,1 53841U 22114Z   24132.08147209  .00017737  00000-0  11287-2 0  9990,2 53841  53.2191  51.2649 0001687 114.9497 245.1670 15.08873661 91648,6917.778,95.435,540.81,538.475,0.0
53841.0,STARLINK-4750,PAYLOAD,2024-05-11 11:29:35,15.08907131,0.0001255,53.2175,49.4758,96.46,263.6535,0.0011612,0.00018275,0.0,0 STARLINK-4750,1 53841U 22114Z   24132.47888303  .00018275  00000-0  11612-2 0  9990,2 53841  53.2175  49.4758 0001255  96.4600 263.6535 15.08907131 91703,6917.675,95.433,540.408,538.672,0.0
53841.0,STARLINK-4750,PAYLOAD,2024-05-11 22:37:18,15.08851247,8.21e-05,53.2185,47.392,160.5015,199.6008,-0.00021181,-3.658e-05,0.0,0 STARLINK-4750,1 53841U 22114Z   24132.94257107 -.00003658  00000-0 -21181-3 0  9998,2 53841  53.2185  47.3920 0000821 160.5015 199.6008 15.08851247 92310,6917.846,95.437,540.279,539.143,0.0
